[{"OBJECT_NAME":"CUBEBUG-2 (LO-74)","OBJECT_ID":"2013-066AA","EPOCH":"2026-03-09T19:57:37.220256","MEAN_MOTION":14.92958446,"ECCENTRICITY":0.00587054,"INCLINATION":97.8812,"RA_OF_ASC_NODE":17.505,"ARG_OF_PERICENTER":358.4894,"MEAN_ANOMALY":1.6138,"EPHEMERIS_TYPE":0,"CLASSIFICATION_TYPE":"U","NORAD_CAT_ID":39440,"ELEMENT_SET_NO":999,"REV_AT_EPOCH":66216,"BSTAR":0.0005932098,"MEAN_MOTION_DOT":6.31e-5,"MEAN_MOTION_DDOT":0},{"OBJECT_NAME":"STARLINK-5061","OBJECT_ID":"2022-177AD","EPOCH":"2026-03-09T11:09:52.793568","MEAN_MOTION":15.02532329,"ECCENTRICITY":0.00012767,"INCLINATION":43.004,"RA_OF_ASC_NODE":108.3577,"ARG_OF_PERICENTER":269.0356,"MEAN_ANOMALY":91.034,"EPHEMERIS_TYPE":0,"CLASSIFICATION_TYPE":"U","NORAD_CAT_ID":54847,"ELEMENT_SET_NO":999,"REV_AT_EPOCH":17722,"BSTAR":-6.0750129e-5,"MEAN_MOTION_DOT":-1.024e-5,"MEAN_MOTION_DDOT":0}]
