CUBEBUG-2 (LO-74)       
1 39440U 13066AA  26068.83168078  .00006310  00000+0  59321-3 0  9991
2 39440  97.8812  17.5050 0058705 358.4894   1.6138 14.92958446662163
STARLINK-5061           
1 54847U 22177AD  26068.46519437 -.00001024  00000+0 -60750-4 0  9998
2 54847  43.0040 108.3577 0001276 269.0356  91.0340 15.02532329177227
